{
  "type": "FeatureCollection",
  "features": [
    {
      "type": "Feature",
      "properties": {
        "name": "Mapbox route 0",
        "distanceKm": 7.18,
        "color": "#ef4444"
      },
      "geometry": {
        "type": "LineString",
        "coordinates": [
          [
            76.985003,
            29.342155
          ],
          [
            76.98394,
            29.341572
          ],
          [
            76.983353,
            29.341312
          ],
          [
            76.982865,
            29.341301
          ],
          [
            76.982703,
            29.341848
          ],
          [
            76.982521,
            29.342487
          ],
          [
            76.98248,
            29.342601
          ],
          [
            76.982306,
            29.343085
          ],
          [
            76.98218,
            29.343513
          ],
          [
            76.982025,
            29.344039
          ],
          [
            76.981864,
            29.344565
          ],
          [
            76.981829,
            29.344754
          ],
          [
            76.981617,
            29.345558
          ],
          [
            76.98156,
            29.345754
          ],
          [
            76.981491,
            29.345933
          ],
          [
            76.9816,
            29.345957
          ],
          [
            76.981498,
            29.346272
          ],
          [
            76.981286,
            29.347099
          ],
          [
            76.981062,
            29.347778
          ],
          [
            76.980783,
            29.34891
          ],
          [
            76.980758,
            29.34901
          ],
          [
            76.980482,
            29.350011
          ],
          [
            76.980339,
            29.350539
          ],
          [
            76.980228,
            29.350923
          ],
          [
            76.980167,
            29.351157
          ],
          [
            76.980127,
            29.351288
          ],
          [
            76.980048,
            29.351534
          ],
          [
            76.979889,
            29.352127
          ],
          [
            76.979839,
            29.352298
          ],
          [
            76.979804,
            29.352434
          ],
          [
            76.979756,
            29.352592
          ],
          [
            76.979711,
            29.352769
          ],
          [
            76.979647,
            29.353017
          ],
          [
            76.979624,
            29.353156
          ],
          [
            76.979568,
            29.353367
          ],
          [
            76.979505,
            29.353575
          ],
          [
            76.979417,
            29.353925
          ],
          [
            76.979288,
            29.354439
          ],
          [
            76.979224,
            29.35443
          ],
          [
            76.97921,
            29.354428
          ],
          [
            76.979173,
            29.354423
          ],
          [
            76.979124,
            29.354658
          ],
          [
            76.979041,
            29.355026
          ],
          [
            76.978977,
            29.355306
          ],
          [
            76.978916,
            29.355577
          ],
          [
            76.978846,
            29.355888
          ],
          [
            76.978577,
            29.357013
          ],
          [
            76.978344,
            29.358088
          ],
          [
            76.978026,
            29.359432
          ],
          [
            76.977758,
            29.360562
          ],
          [
            76.977602,
            29.36123
          ],
          [
            76.977105,
            29.363364
          ],
          [
            76.976898,
            29.364227
          ],
          [
            76.97686,
            29.364386
          ],
          [
            76.976457,
            29.366068
          ],
          [
            76.976356,
            29.366495
          ],
          [
            76.97634,
            29.366565
          ],
          [
            76.976275,
            29.366881
          ],
          [
            76.976166,
            29.367336
          ],
          [
            76.975962,
            29.368164
          ],
          [
            76.975726,
            29.369164
          ],
          [
            76.975709,
            29.369238
          ],
          [
            76.975701,
            29.369276
          ],
          [
            76.975398,
            29.370631
          ],
          [
            76.975298,
            29.371036
          ],
          [
            76.975249,
            29.371231
          ],
          [
            76.974866,
            29.372885
          ],
          [
            76.974775,
            29.373277
          ],
          [
            76.974289,
            29.37538
          ],
          [
            76.974262,
            29.375509
          ],
          [
            76.974049,
            29.376458
          ],
          [
            76.97398,
            29.376768
          ],
          [
            76.973878,
            29.377224
          ],
          [
            76.973868,
            29.377272
          ],
          [
            76.973748,
            29.377812
          ],
          [
            76.973739,
            29.377846
          ],
          [
            76.973626,
            29.378267
          ],
          [
            76.973498,
            29.378747
          ],
          [
            76.973376,
            29.379203
          ],
          [
            76.973352,
            29.379278
          ],
          [
            76.97324,
            29.379614
          ],
          [
            76.973092,
            29.380061
          ],
          [
            76.972665,
            29.381247
          ],
          [
            76.972569,
            29.381223
          ],
          [
            76.972327,
            29.381153
          ],
          [
            76.97143,
            29.380895
          ],
          [
            76.97059,
            29.380653
          ],
          [
            76.970464,
            29.3806
          ],
          [
            76.969895,
            29.380422
          ],
          [
            76.969834,
            29.380413
          ],
          [
            76.96929,
            29.380262
          ],
          [
            76.968867,
            29.38013
          ],
          [
            76.968586,
            29.380053
          ],
          [
            76.968332,
            29.380003
          ],
          [
            76.968232,
            29.379974
          ],
          [
            76.967462,
            29.379749
          ],
          [
            76.967083,
            29.379639
          ],
          [
            76.966816,
            29.379558
          ],
          [
            76.966506,
            29.379404
          ],
          [
            76.964943,
            29.378471
          ],
          [
            76.963913,
            29.377868
          ],
          [
            76.963612,
            29.377603
          ],
          [
            76.963506,
            29.377517
          ],
          [
            76.963217,
            29.377157
          ],
          [
            76.962189,
            29.375892
          ],
          [
            76.961959,
            29.375622
          ],
          [
            76.961896,
            29.375548
          ],
          [
            76.961817,
            29.375456
          ],
          [
            76.961365,
            29.374888
          ],
          [
            76.961299,
            29.374806
          ],
          [
            76.960994,
            29.374424
          ],
          [
            76.960818,
            29.374203
          ],
          [
            76.960687,
            29.37403
          ],
          [
            76.960316,
            29.373573
          ],
          [
            76.960089,
            29.373289
          ],
          [
            76.959978,
            29.373149
          ],
          [
            76.959276,
            29.372266
          ],
          [
            76.95918,
            29.372146
          ],
          [
            76.95893,
            29.371831
          ],
          [
            76.95926,
            29.371656
          ],
          [
            76.959644,
            29.371451
          ],
          [
            76.959784,
            29.371376
          ],
          [
            76.959939,
            29.371325
          ],
          [
            76.960639,
            29.371112
          ],
          [
            76.960701,
            29.371105
          ],
          [
            76.961214,
            29.37105
          ],
          [
            76.961512,
            29.371039
          ],
          [
            76.96159,
            29.371085
          ],
          [
            76.96161,
            29.371093
          ],
          [
            76.96165,
            29.37109
          ],
          [
            76.961981,
            29.371046
          ],
          [
            76.962694,
            29.370936
          ],
          [
            76.963254,
            29.370855
          ],
          [
            76.963893,
            29.370779
          ],
          [
            76.963948,
            29.370769
          ],
          [
            76.964029,
            29.370746
          ],
          [
            76.964102,
            29.370703
          ],
          [
            76.964009,
            29.370655
          ],
          [
            76.963938,
            29.370647
          ],
          [
            76.963862,
            29.370651
          ],
          [
            76.963834,
            29.37059
          ],
          [
            76.963656,
            29.370224
          ]
        ]
      }
    },
    {
      "type": "Feature",
      "properties": {
        "name": "Mapbox route 1",
        "distanceKm": 8.34,
        "color": "#3b82f6"
      },
      "geometry": {
        "type": "LineString",
        "coordinates": [
          [
            76.985003,
            29.342155
          ],
          [
            76.98394,
            29.341572
          ],
          [
            76.983353,
            29.341312
          ],
          [
            76.982865,
            29.341301
          ],
          [
            76.983038,
            29.340617
          ],
          [
            76.982991,
            29.340579
          ],
          [
            76.982139,
            29.339919
          ],
          [
            76.981784,
            29.339643
          ],
          [
            76.981478,
            29.339406
          ],
          [
            76.981424,
            29.339357
          ],
          [
            76.981204,
            29.339158
          ],
          [
            76.981125,
            29.33909
          ],
          [
            76.980871,
            29.338876
          ],
          [
            76.980729,
            29.338743
          ],
          [
            76.980442,
            29.338472
          ],
          [
            76.979849,
            29.337941
          ],
          [
            76.979735,
            29.337849
          ],
          [
            76.979647,
            29.337798
          ],
          [
            76.979559,
            29.337758
          ],
          [
            76.979418,
            29.337713
          ],
          [
            76.979313,
            29.33769
          ],
          [
            76.979211,
            29.337679
          ],
          [
            76.978933,
            29.337651
          ],
          [
            76.978679,
            29.33764
          ],
          [
            76.978501,
            29.337653
          ],
          [
            76.978272,
            29.337686
          ],
          [
            76.977824,
            29.337754
          ],
          [
            76.977767,
            29.33776
          ],
          [
            76.977687,
            29.337769
          ],
          [
            76.977629,
            29.337776
          ],
          [
            76.977462,
            29.337779
          ],
          [
            76.977305,
            29.337767
          ],
          [
            76.977183,
            29.337747
          ],
          [
            76.977153,
            29.337741
          ],
          [
            76.977007,
            29.337694
          ],
          [
            76.976875,
            29.33764
          ],
          [
            76.976666,
            29.337539
          ],
          [
            76.976182,
            29.337305
          ],
          [
            76.976018,
            29.337226
          ],
          [
            76.975793,
            29.337142
          ],
          [
            76.975503,
            29.33702
          ],
          [
            76.975261,
            29.336931
          ],
          [
            76.975232,
            29.33692
          ],
          [
            76.975105,
            29.336864
          ],
          [
            76.974925,
            29.336804
          ],
          [
            76.973965,
            29.336533
          ],
          [
            76.973536,
            29.336344
          ],
          [
            76.973402,
            29.336285
          ],
          [
            76.973097,
            29.336152
          ],
          [
            76.97301,
            29.33612
          ],
          [
            76.972941,
            29.336102
          ],
          [
            76.972899,
            29.336092
          ],
          [
            76.972772,
            29.336059
          ],
          [
            76.972673,
            29.336044
          ],
          [
            76.972599,
            29.336038
          ],
          [
            76.972529,
            29.336041
          ],
          [
            76.972221,
            29.336024
          ],
          [
            76.972045,
            29.336004
          ],
          [
            76.971914,
            29.33598
          ],
          [
            76.971758,
            29.335947
          ],
          [
            76.971588,
            29.335868
          ],
          [
            76.971182,
            29.335717
          ],
          [
            76.970629,
            29.335557
          ],
          [
            76.969823,
            29.335232
          ],
          [
            76.969484,
            29.335095
          ],
          [
            76.968429,
            29.334672
          ],
          [
            76.966918,
            29.334069
          ],
          [
            76.966843,
            29.334039
          ],
          [
            76.966577,
            29.333928
          ],
          [
            76.966418,
            29.333858
          ],
          [
            76.966269,
            29.333795
          ],
          [
            76.965651,
            29.333516
          ],
          [
            76.965423,
            29.333435
          ],
          [
            76.964999,
            29.333296
          ],
          [
            76.964694,
            29.333183
          ],
          [
            76.964386,
            29.333071
          ],
          [
            76.964218,
            29.333001
          ],
          [
            76.96323,
            29.332591
          ],
          [
            76.961759,
            29.332004
          ],
          [
            76.960946,
            29.331703
          ],
          [
            76.960053,
            29.331355
          ],
          [
            76.959966,
            29.331316
          ],
          [
            76.95945,
            29.331102
          ],
          [
            76.959345,
            29.331067
          ],
          [
            76.959265,
            29.331045
          ],
          [
            76.958987,
            29.331007
          ],
          [
            76.958854,
            29.33099
          ],
          [
            76.958802,
            29.330983
          ],
          [
            76.958492,
            29.332975
          ],
          [
            76.958295,
            29.333893
          ],
          [
            76.958056,
            29.335032
          ],
          [
            76.95723,
            29.33858
          ],
          [
            76.955987,
            29.343996
          ],
          [
            76.955715,
            29.345176
          ],
          [
            76.955316,
            29.346909
          ],
          [
            76.954589,
            29.35002
          ],
          [
            76.953706,
            29.353818
          ],
          [
            76.953051,
            29.356764
          ],
          [
            76.952699,
            29.358348
          ],
          [
            76.952649,
            29.358576
          ],
          [
            76.952482,
            29.359421
          ],
          [
            76.952346,
            29.359989
          ],
          [
            76.95221,
            29.360595
          ],
          [
            76.952716,
            29.361165
          ],
          [
            76.952802,
            29.361249
          ],
          [
            76.95287,
            29.361324
          ],
          [
            76.95296,
            29.361433
          ],
          [
            76.953041,
            29.361576
          ],
          [
            76.953105,
            29.361689
          ],
          [
            76.953506,
            29.362712
          ],
          [
            76.953522,
            29.362751
          ],
          [
            76.95387,
            29.363605
          ],
          [
            76.95416,
            29.364315
          ],
          [
            76.954213,
            29.364447
          ],
          [
            76.95434,
            29.364757
          ],
          [
            76.95459,
            29.365372
          ],
          [
            76.954734,
            29.365742
          ],
          [
            76.95482,
            29.365961
          ],
          [
            76.954906,
            29.366184
          ],
          [
            76.954929,
            29.366241
          ],
          [
            76.955055,
            29.366564
          ],
          [
            76.955085,
            29.366643
          ],
          [
            76.955162,
            29.366795
          ],
          [
            76.955343,
            29.367156
          ],
          [
            76.955548,
            29.367491
          ],
          [
            76.955622,
            29.367612
          ],
          [
            76.95566,
            29.367674
          ],
          [
            76.955824,
            29.367885
          ],
          [
            76.955979,
            29.368083
          ],
          [
            76.956096,
            29.368244
          ],
          [
            76.956193,
            29.368362
          ],
          [
            76.95625,
            29.368438
          ],
          [
            76.956277,
            29.36847
          ],
          [
            76.956548,
            29.368815
          ],
          [
            76.956622,
            29.368909
          ],
          [
            76.956749,
            29.369071
          ],
          [
            76.956908,
            29.369273
          ],
          [
            76.957044,
            29.369445
          ],
          [
            76.957112,
            29.369533
          ],
          [
            76.957244,
            29.369699
          ],
          [
            76.957303,
            29.369776
          ],
          [
            76.957534,
            29.370069
          ],
          [
            76.957794,
            29.3704
          ],
          [
            76.957881,
            29.370515
          ],
          [
            76.958013,
            29.37069
          ],
          [
            76.958242,
            29.370995
          ],
          [
            76.958493,
            29.371308
          ],
          [
            76.95871,
            29.371576
          ],
          [
            76.95893,
            29.371831
          ],
          [
            76.95926,
            29.371656
          ],
          [
            76.959644,
            29.371451
          ],
          [
            76.959784,
            29.371376
          ],
          [
            76.959939,
            29.371325
          ],
          [
            76.960639,
            29.371112
          ],
          [
            76.960701,
            29.371105
          ],
          [
            76.961214,
            29.37105
          ],
          [
            76.961512,
            29.371039
          ],
          [
            76.96159,
            29.371085
          ],
          [
            76.96161,
            29.371093
          ],
          [
            76.96165,
            29.37109
          ],
          [
            76.961981,
            29.371046
          ],
          [
            76.962694,
            29.370936
          ],
          [
            76.963254,
            29.370855
          ],
          [
            76.963893,
            29.370779
          ],
          [
            76.963948,
            29.370769
          ],
          [
            76.964029,
            29.370746
          ],
          [
            76.964102,
            29.370703
          ],
          [
            76.964009,
            29.370655
          ],
          [
            76.963938,
            29.370647
          ],
          [
            76.963862,
            29.370651
          ],
          [
            76.963834,
            29.37059
          ],
          [
            76.963656,
            29.370224
          ]
        ]
      }
    }
  ]
}